GLOBALSTAR M084         
1 38040U 11080A   25295.02759493 -.00000095  00000+0  46979-4 0  9990
2 38040  52.0032  22.3243 0000264  89.0131  82.3790 12.62269520638684
GLOBALSTAR M080         
1 38041U 11080B   25295.20216413 -.00000096  00000+0  41376-4 0  9998
2 38041  52.0084  23.4293 0001010 102.1588 272.1248 12.62269744638834
GLOBALSTAR M082         
1 38042U 11080C   25295.05752950 -.00000070  00000+0  18664-3 0  9998
2 38042  52.0097 339.3467 0000717 104.9239 262.3107 12.62264055639529
GLOBALSTAR M092         
1 38043U 11080D   25295.14654627 -.00000103  00000+0  48926-5 0  9994
2 38043  52.0083  69.4561 0000754 101.0091  70.0526 12.62267230637981
GLOBALSTAR M090         
1 38044U 11080E   25295.08638969 -.00000066  00000+0  20852-3 0  9993
2 38044  52.0142 333.1384 0000442 118.3445 259.2142 12.62263273639643
GLOBALSTAR M086         
1 38045U 11080F   25295.11152355 -.00000075  00000+0  16124-3 0  9995
2 38045  51.9915 333.3790 0000735 226.0983 152.2502 12.62278448639598
GLOBALSTAR M097         
1 39072U 13005A   25295.13506564 -.00000102  00000+0  10999-4 0  9998
2 39072  52.0037 247.9881 0000449  81.2626 278.8291 12.62266636586849
GLOBALSTAR M093         
1 39073U 13005B   25295.10906517 -.00000089  00000+0  80588-4 0  9993
2 39073  52.0096 241.3242 0000531 100.6359 259.4567 12.62265515586795
